[
    {
        "CCSDS_OMM_VERS": "3.0",
        "COMMENT": "GENERATED VIA SPACE-TRACK.ORG API",
        "CREATION_DATE": "2025-04-14T03:05:54",
        "ORIGINATOR": "18 SPCS",
        "OBJECT_NAME": "NAVSTAR 73 (USA 260)",
        "OBJECT_ID": "2015-013A",
        "CENTER_NAME": "EARTH",
        "REF_FRAME": "TEME",
        "TIME_SYSTEM": "UTC",
        "MEAN_ELEMENT_THEORY": "SGP4",
        "EPOCH": "2025-04-13T18:57:25.485120",
        "MEAN_MOTION": "2.00547123",
        "ECCENTRICITY": "0.00976630",
        "INCLINATION": "53.2530",
        "RA_OF_ASC_NODE": "221.9447",
        "ARG_OF_PERICENTER": "34.7324",
        "MEAN_ANOMALY": "325.8866",
        "EPHEMERIS_TYPE": "0",
        "CLASSIFICATION_TYPE": "U",
        "NORAD_CAT_ID": "40534",
        "ELEMENT_SET_NO": "999",
        "REV_AT_EPOCH": "7321",
        "BSTAR": "0.00000000000000",
        "MEAN_MOTION_DOT": "-0.00000004",
        "MEAN_MOTION_DDOT": "0.0000000000000",
        "SEMIMAJOR_AXIS": "26561.803",
        "PERIOD": "718.036",
        "APOAPSIS": "20443.078",
        "PERIAPSIS": "19924.257",
        "OBJECT_TYPE": "PAYLOAD",
        "RCS_SIZE": "LARGE",
        "COUNTRY_CODE": "US",
        "LAUNCH_DATE": "2015-03-25",
        "SITE": "AFETR",
        "DECAY_DATE": null,
        "FILE": "4701263",
        "GP_ID": "285536536",
        "TLE_LINE0": "0 NAVSTAR 73 (USA 260)",
        "TLE_LINE1": "1 40534U 15013A   25103.78987830 -.00000004  00000-0  00000-0 0  9992",
        "TLE_LINE2": "2 40534  53.2530 221.9447 0097663  34.7324 325.8866  2.00547123 73214"
    }
]